[{"OBJECT_NAME":"ONEWEB-0532","OBJECT_ID":"2023-004A","EPOCH":"2026-03-09T20:39:25.580736","MEAN_MOTION":13.17648914,"ECCENTRICITY":0.0001921,"INCLINATION":87.9162,"RA_OF_ASC_NODE":25.5867,"ARG_OF_PERICENTER":68.5799,"MEAN_ANOMALY":291.5537,"EPHEMERIS_TYPE":0,"CLASSIFICATION_TYPE":"U","NORAD_CAT_ID":55140,"ELEMENT_SET_NO":999,"REV_AT_EPOCH":15450,"BSTAR":-0.00011889847,"MEAN_MOTION_DOT":-3.3e-7,"MEAN_MOTION_DDOT":0},{"OBJECT_NAME":"SL-14 DEB","OBJECT_ID":"1991-056CW","EPOCH":"2026-03-09T06:57:53.934048","MEAN_MOTION":13.24406991,"ECCENTRICITY":0.00298115,"INCLINATION":82.555,"RA_OF_ASC_NODE":191.8795,"ARG_OF_PERICENTER":269.3545,"MEAN_ANOMALY":90.4166,"EPHEMERIS_TYPE":0,"CLASSIFICATION_TYPE":"U","NORAD_CAT_ID":45652,"ELEMENT_SET_NO":999,"REV_AT_EPOCH":28562,"BSTAR":0.0022379031,"MEAN_MOTION_DOT":9.75e-6,"MEAN_MOTION_DDOT":0}]
